GLOBALSTAR M024         
1 25883U 99043A   25225.84914613 -.00000071  00000+0 -20326-3 0  9998
2 25883  51.9983 250.5196 0001509 198.8199 332.0587 11.10163979121269
GLOBALSTAR M027         
1 25884U 99043B   25225.60945165 -.00000074  00000+0 -39597-3 0  9992
2 25884  52.0246 330.6695 0021950  85.0831 275.2467 11.04371704147588
GLOBALSTAR M054         
1 25885U 99043C   25225.93686007 -.00000165  00000+0 -23900-2 0  9997
2 25885  52.0136  87.5455 0004696 277.8752  95.4513 11.39221863125634
GLOBALSTAR M053         
1 25886U 99043D   25225.88965905 -.00000077  00000+0 -23191-3 0  9994
2 25886  52.0000  37.9533 0003345 164.8186 348.3939 11.27666196125953
GLOBALSTAR M058         
1 25907U 99049A   25225.52411885 -.00000068  00000+0  22252-3 0  9994
2 25907  51.9964 316.0732 0002134  34.4639 325.6334 11.93200945548388
GLOBALSTAR M050         
1 25908U 99049B   25225.57067601  .00000007  00000+0  10738-2 0  9990
2 25908  52.0014 319.3371 0009667 144.8780 228.8201 12.07455930155128
GLOBALSTAR M033         
1 25909U 99049C   25225.27706373 -.00000013  00000+0  75924-3 0  9991
2 25909  51.9889 188.0279 0013978  20.1946 339.9452 12.20295787542719
GLOBALSTAR M055         
1 25910U 99049D   25225.89881219 -.00000074  00000+0  17524-3 0  9993
2 25910  51.9995 194.2165 0006915 253.6314 106.3777 12.29431029175388
